1 44026U 98046V   19282.64378175 +.00056432 +00000-0 +38131-1 0  9993
2 44026 045.2238 351.7072 0169222 114.8935 246.9593 13.93020382038976
1 44026U 98046V   19283.07408597  .00066884  00000-0  45101-1 0  9990
2 44026  45.2250 349.8204 0168535 116.7492 245.0697 13.93089478 39034
1 44026U 98046V   19283.57608675  .00061802  00000-0  41760-1 0  9996
2 44026  45.2238 347.6147 0166885 118.9172 242.8513 13.93146848 39102
